NORAD_CAT_ID,OBJECT_NAME,OBJECT_TYPE,EPOCH,MEAN_MOTION,ECCENTRICITY,INCLINATION,RA_OF_ASC_NODE,ARG_OF_PERICENTER,MEAN_ANOMALY,BSTAR,MEAN_MOTION_DOT,MEAN_MOTION_DDOT,TLE_LINE0,TLE_LINE1,TLE_LINE2,SEMIMAJOR_AXIS,PERIOD,APOGEE,PERIGEE,DECAYED
56770.0,STARLINK-6342,PAYLOAD,2023-09-26 22:53:32,14.983269,0.0003022,69.9991,100.4335,271.6866,88.3947,-2.8689e-06,-1.27e-06,0.0,0 STARLINK-6342,1 56770U 23078D   23269.95384320 -.00000127  00000-0 -28689-5 0  9991,2 56770  69.9991 100.4335 0003022 271.6866  88.3947 14.98326900 18425,6950.202,96.107,574.168,569.967,0.0
56770.0,STARLINK-6342,PAYLOAD,2023-09-27 13:18:44,14.98331325,0.0003032,69.999,98.9186,271.8043,88.2769,1.8274e-05,1.25e-06,0.0,0 STARLINK-6342,1 56770U 23078D   23270.55467997  .00000125  00000-0  18274-4 0  9995,2 56770  69.9990  98.9186 0003032 271.8043  88.2769 14.98331325 18258,6950.189,96.107,574.161,569.946,0.0
56770.0,STARLINK-6342,PAYLOAD,2023-09-27 22:55:32,14.98332037,0.000304,69.9991,97.9089,271.7315,88.3496,1.8682e-05,1.3e-06,0.0,0 STARLINK-6342,1 56770U 23078D   23270.95523917  .00000130  00000-0  18682-4 0  9993,2 56770  69.9991  97.9089 0003040 271.7315  88.3496 14.98332037 18574,6950.187,96.107,574.164,569.939,0.0
56770.0,STARLINK-6342,PAYLOAD,2023-09-28 14:56:53,14.98330403,0.0003072,69.999,96.2257,268.3799,91.7008,4.5265e-05,4.47e-06,0.0,0 STARLINK-6342,1 56770U 23078D   23271.62283871  .00000447  00000-0  45265-4 0  9998,2 56770  69.9990  96.2257 0003072 268.3799  91.7008 14.98330403 18410,6950.192,96.107,574.192,569.922,0.0
56770.0,STARLINK-6342,PAYLOAD,2023-09-28 21:21:25,14.98330562,0.0003083,69.9992,95.5526,268.6172,91.4634,4.3e-05,4.2e-06,0.0,0 STARLINK-6342,1 56770U 23078D   23271.88987851  .00000420  00000-0  43000-4 0  9991,2 56770  69.9992  95.5526 0003083 268.6172  91.4634 14.98330562 18455,6950.191,96.107,574.199,569.913,0.0
56770.0,STARLINK-6342,PAYLOAD,2023-09-28 22:57:33,14.98331543,0.0003072,69.9992,95.3839,267.6968,92.3839,5.2981e-05,5.39e-06,0.0,0 STARLINK-6342,1 56770U 23078D   23271.95663747  .00000539  00000-0  52981-4 0  9993,2 56770  69.9992  95.3839 0003072 267.6968  92.3839 14.98331543 18727,6950.188,96.107,574.188,569.918,0.0
56770.0,STARLINK-6342,PAYLOAD,2023-09-29 13:22:46,14.98332268,0.0003011,69.9995,93.8689,266.8703,93.2111,2.9318e-06,-5.8e-07,0.0,0 STARLINK-6342,1 56770U 23078D   23272.55747758 -.00000058  00000-0  29318-5 0  9991,2 56770  69.9995  93.8689 0003011 266.8703  93.2111 14.98332268 18556,6950.186,96.107,574.144,569.958,0.0
56770.0,STARLINK-6342,PAYLOAD,2023-09-29 19:47:18,14.98332448,0.0002995,69.9996,93.1957,265.014,95.0677,6.5772e-06,-1.5e-07,0.0,0 STARLINK-6342,1 56770U 23078D   23272.82451675 -.00000015  00000-0  65772-5 0  9998,2 56770  69.9996  93.1957 0002995 265.0140  95.0677 14.98332448 18595,6950.185,96.107,574.132,569.969,0.0
56770.0,STARLINK-6342,PAYLOAD,2023-09-30 18:13:11,14.98328281,0.0002976,69.9993,90.8377,266.6711,93.4108,-1.4701e-05,-2.68e-06,0.0,0 STARLINK-6342,1 56770U 23078D   23273.75915917 -.00000268  00000-0 -14701-4 0  9991,2 56770  69.9993  90.8377 0002976 266.6711  93.4108 14.98328281 18997,6950.198,96.107,574.132,569.995,0.0
56770.0,STARLINK-6342,PAYLOAD,2023-10-01 13:26:47,14.98332321,0.0003149,69.9993,88.8186,269.968,90.1118,5.6572e-06,-2.6e-07,0.0,0 STARLINK-6342,1 56770U 23078D   23274.56027578 -.00000026  00000-0  56572-5 0  9992,2 56770  69.9993  88.8186 0003149 269.9680  90.1118 14.98332321 18856,6950.186,96.107,574.239,569.862,0.0
56770.0,STARLINK-6342,PAYLOAD,2023-10-01 18:15:11,14.98333154,0.0003153,69.9993,88.3136,269.8528,90.227,1.5476e-05,9.2e-07,0.0,0 STARLINK-6342,1 56770U 23078D   23274.76055462  .00000092  00000-0  15476-4 0  9996,2 56770  69.9993  88.3136 0003153 269.8528  90.2270 14.98333154 19149,6950.183,96.107,574.24,569.857,0.0
56770.0,STARLINK-6342,PAYLOAD,2023-10-01 21:27:27,14.98334214,0.0003132,69.9992,87.9768,269.8825,90.1975,2.925e-05,2.56e-06,0.0,0 STARLINK-6342,1 56770U 23078D   23274.89407330  .00000256  00000-0  29250-4 0  9992,2 56770  69.9992  87.9768 0003132 269.8825  90.1975 14.98334214 18903,6950.18,96.107,574.222,569.868,0.0
56770.0,STARLINK-6342,PAYLOAD,2023-10-02 19:53:21,14.98329405,0.0003149,69.9991,85.6201,270.0383,90.0415,2.4729e-05,2.02e-06,0.0,0 STARLINK-6342,1 56770U 23078D   23275.82871603  .00000202  00000-0  24729-4 0  9991,2 56770  69.9991  85.6201 0003149 270.0383  90.0415 14.98329405 19309,6950.195,96.107,574.248,569.871,0.0
56770.0,STARLINK-6342,PAYLOAD,2023-10-03 13:30:49,14.98329667,0.0003075,69.9992,83.7682,270.0013,90.0794,-3.4556e-05,-5.05e-06,0.0,0 STARLINK-6342,1 56770U 23078D   23276.56307776 -.00000505  00000-0 -34556-4 0  9995,2 56770  69.9992  83.7682 0003075 270.0013  90.0794 14.98329667 19153,6950.194,96.107,574.196,569.922,0.0
56770.0,STARLINK-6342,PAYLOAD,2023-10-03 19:55:22,14.98331222,0.0003068,69.9993,83.0948,270.2125,89.8682,-1.3365e-05,-2.52e-06,0.0,0 STARLINK-6342,1 56770U 23078D   23276.83011614 -.00000252  00000-0 -13365-4 0  9992,2 56770  69.9993  83.0948 0003068 270.2125  89.8682 14.98331222 19196,6950.189,96.107,574.186,569.922,0.0
56770.0,STARLINK-6342,PAYLOAD,2023-10-04 13:32:50,14.98332266,0.0003079,69.9996,81.2435,271.4356,88.645,3.9574e-05,3.79e-06,0.0,0 STARLINK-6342,1 56770U 23078D   23277.56447321  .00000379  00000-0  39574-4 0  9999,2 56770  69.9996  81.2435 0003079 271.4356  88.6450 14.98332266 19303,6950.186,96.107,574.191,569.911,0.0
56770.0,STARLINK-6342,PAYLOAD,2023-10-04 21:33:30,14.98335437,0.0002999,69.9999,80.402,268.9079,91.1736,8.0501e-05,8.68e-06,0.0,0 STARLINK-6342,1 56770U 23078D   23277.89826930  .00000868  00000-0  80501-4 0  9991,2 56770  69.9999  80.4020 0002999 268.9079  91.1736 14.98335437 19354,6950.176,96.107,574.125,569.957,0.0
56770.0,STARLINK-6342,PAYLOAD,2023-10-05 13:34:51,14.98327981,0.0002934,70.0002,78.7186,269.0685,91.0138,-6.4482e-06,-1.7e-06,0.0,0 STARLINK-6342,1 56770U 23078D   23278.56587587 -.00000170  00000-0 -64482-5 0  9997,2 56770  70.0002  78.7186 0002934 269.0685  91.0138 14.98327981 19450,6950.199,96.107,574.103,570.025,0.0
56770.0,STARLINK-6342,PAYLOAD,2023-10-05 18:23:15,14.98328746,0.0002938,70.0002,78.214,266.7781,93.3042,2.8729e-06,-5.9e-07,0.0,0 STARLINK-6342,1 56770U 23078D   23278.76615501 -.00000059  00000-0  28729-5 0  9996,2 56770  70.0002  78.2140 0002938 266.7781  93.3042 14.98328746 19741,6950.197,96.107,574.104,570.02,0.0
56770.0,STARLINK-6342,PAYLOAD,2023-10-05 19:59:23,14.98328727,0.0002939,70.0002,78.0457,266.8295,93.2528,2.1889e-06,-6.7e-07,0.0,0 STARLINK-6342,1 56770U 23078D   23278.83291505 -.00000067  00000-0  21889-5 0  9997,2 56770  70.0002  78.0457 0002939 266.8295  93.2528 14.98328727 19491,6950.197,96.107,574.104,570.019,0.0
56770.0,STARLINK-6342,PAYLOAD,2023-10-06 13:36:52,14.98329863,0.0002886,70.0004,76.1944,266.2345,93.8485,-5.5205e-05,-7.52e-06,0.0,0 STARLINK-6342,1 56770U 23078D   23279.56727610 -.00000752  00000-0 -55205-4 0  9999,2 56770  70.0004  76.1944 0002886 266.2345  93.8485 14.98329863 19607,6950.193,96.107,574.064,570.052,0.0
56770.0,STARLINK-6342,PAYLOAD,2023-10-06 18:25:16,14.98330346,0.000288,70.0004,75.6893,266.9109,93.1721,-4.139e-05,-5.87e-06,0.0,0 STARLINK-6342,1 56770U 23078D   23279.76755547 -.00000587  00000-0 -41390-4 0  9997,2 56770  70.0004  75.6893 0002880 266.9109  93.1721 14.98330346 19898,6950.192,96.107,574.058,570.055,0.0
56770.0,STARLINK-6342,PAYLOAD,2023-10-06 20:01:24,14.98331469,0.0002875,70.0004,75.521,267.23,92.853,-2.7866e-05,-4.25e-06,0.0,0 STARLINK-6342,1 56770U 23078D   23279.83431437 -.00000425  00000-0 -27866-4 0  9997,2 56770  70.0004  75.5210 0002875 267.2300  92.8530 14.98331469 19645,6950.188,96.107,574.052,570.055,0.0
56770.0,STARLINK-6342,PAYLOAD,2023-10-07 13:38:53,14.98329861,0.0002932,70.0003,73.6697,268.3942,91.6881,2.9135e-05,2.55e-06,0.0,0 STARLINK-6342,1 56770U 23078D   23280.56867358  .00000255  00000-0  29135-4 0  9994,2 56770  70.0003  73.6697 0002932 268.3942  91.6881 14.98329861 19751,6950.193,96.107,574.096,570.021,0.0
56770.0,STARLINK-6342,PAYLOAD,2023-10-07 18:27:17,14.98331074,0.0002928,70.0004,73.1649,268.5862,91.4962,4.0414e-05,3.89e-06,0.0,0 STARLINK-6342,1 56770U 23078D   23280.76895251  .00000389  00000-0  40414-4 0  9990,2 56770  70.0004  73.1649 0002928 268.5862  91.4962 14.98331074 20043,6950.19,96.107,574.09,570.02,0.0
56770.0,STARLINK-6342,PAYLOAD,2023-10-07 20:03:25,14.98332213,0.000293,70.0005,72.9968,269.0203,91.062,5.2191e-05,5.3e-06,0.0,0 STARLINK-6342,1 56770U 23078D   23280.83571140  .00000530  00000-0  52191-4 0  9999,2 56770  70.0005  72.9968 0002930 269.0203  91.0620 14.98332213 19796,6950.186,96.107,574.087,570.015,0.0
56770.0,STARLINK-6342,PAYLOAD,2023-10-08 13:40:54,14.98329496,0.0003035,70.0002,71.1444,270.5885,89.4926,1.9942e-05,1.45e-06,0.0,0 STARLINK-6342,1 56770U 23078D   23281.57007420  .00000145  00000-0  19942-4 0  9995,2 56770  70.0002  71.1444 0003035 270.5885  89.4926 14.98329496 19905,6950.194,96.107,574.169,569.95,0.0
56770.0,STARLINK-6342,PAYLOAD,2023-10-08 18:29:18,14.98332936,0.0003002,70.0002,70.6394,270.1708,89.9107,5.7875e-05,5.98e-06,0.0,0 STARLINK-6342,1 56770U 23078D   23281.77035075  .00000598  00000-0  57875-4 0  9993,2 56770  70.0002  70.6394 0003002 270.1708  89.9107 14.98332936 20199,6950.184,96.107,574.135,569.962,0.0
56770.0,STARLINK-6342,PAYLOAD,2023-10-08 20:05:26,14.98333823,0.0003003,70.0003,70.471,270.2052,89.8763,6.6081e-05,6.96e-06,0.0,0 STARLINK-6342,1 56770U 23078D   23281.83710981  .00000696  00000-0  66081-4 0  9994,2 56770  70.0003  70.4710 0003003 270.2052  89.8763 14.98333823 19948,6950.181,96.107,574.133,569.959,0.0
56770.0,STARLINK-6342,PAYLOAD,2023-10-09 13:42:55,14.9832695,0.0002751,70.0008,68.6194,266.855,93.2295,-3.6374e-05,-5.27e-06,0.0,0 STARLINK-6342,1 56770U 23078D   23282.57147724 -.00000527  00000-0 -36374-4 0  9992,2 56770  70.0008  68.6194 0002751 266.8550  93.2295 14.98326950 20057,6950.202,96.107,573.979,570.155,0.0
